TDRS 3                  
1 19548U 88091B   24244.85813269 -.00000307  00000+0  00000+0 0  9990
2 19548  13.1041 345.3870 0035063 336.1087 278.9014  1.00279872118821
HST                     
1 20580U 90037B   24247.53645348  .00013506  00000+0  61603-3 0  9994
2 20580  28.4685 179.7183 0002426 178.0983 181.9620 15.19112357688954
TDRS 5                  
1 21639U 91054B   24247.20246113 -.00000304  00000+0  00000+0 0  9994
2 21639  14.1526 358.5297 0005241 225.3303 129.6346  1.00274549121176
TDRS 6                  
1 22314U 93003B   24247.70636020 -.00000297  00000+0  00000+0 0  9997
2 22314  14.1656   1.8294 0012483 172.3039  17.4160  1.00266119115871
TDRS 7                  
1 23613U 95035B   24247.84379157 -.00000204  00000+0  00000+0 0  9995
2 23613  13.6491 352.6706 0025456  77.4731 302.0327  1.00270761106728
ISS (ZARYA)             
1 25544U 98067A   24248.53701050  .00021937  00000+0  39929-3 0  9997
2 25544  51.6405 282.2454 0011127 319.9749 193.6043 15.49364150470852
LANDSAT 7               
1 25682U 99020A   24247.93501340  .00001959  00000+0  40919-3 0  9996
2 25682  97.8850 271.0028 0001838  95.3043  22.5177 14.60892371350638
TERRA                   
1 25994U 99068A   24248.18166038  .00002113  00000+0  44961-3 0  9997
2 25994  98.0414 309.3314 0003270 108.4110 311.0138 14.60014221314698
TDRS 8                  
1 26388U 00034A   24248.23198969  .00000094  00000+0  00000+0 0  9992
2 26388  11.6519  36.5589 0004592 183.9112  39.3339  1.00269938 88647
TIMED                   
1 26998U 01055B   24247.91947556  .00004794  00000+0  47703-3 0  9997
2 26998  74.0697 103.6020 0001141 183.7943 176.3232 14.91935124233565
AQUA                    
1 27424U 02022A   24248.15538025  .00004712  00000+0  99622-3 0  9998
2 27424  98.3357 197.8626 0001118 108.7383  16.7524 14.59776499188234
TDRS 10                 
1 27566U 02055A   24247.80262153  .00000085  00000+0  00000+0 0  9995
2 27566   9.7050  44.7926 0002466 343.1719  73.3704  1.00277810 79700
SORCE                   
1 27651U 03004A   24247.62089245  .00010629  00000+0  93540-3 0  9994
2 27651  39.9935   1.4769 0020245  70.1490 290.1482 14.96159047173993
AURA                    
1 28376U 04026A   24248.11306323  .00004472  00000+0  96190-3 0  9991
2 28376  98.2550 192.4339 0001637 119.1372 240.9991 14.59001142 71222
SWIFT                   
1 28485U 04047A   24247.58776144  .00031586  00000+0  13115-2 0  9998
2 28485  20.5571 338.8384 0007521 206.0380 153.9679 15.22030741 86122
THEMIS A                
1 30580U 07004A   24246.88508656 -.00000289  00000+0  00000+0 0  9999
2 30580   9.2491 259.2530 8372405 334.3098   1.0108  0.87834900 35544
THEMIS D                
1 30797U 07004D   24247.68281561 -.00000198  00000+0  00000+0 0  9990
2 30797   4.8535 258.2580 8364506 339.4741 241.7212  0.87836159 35347
THEMIS E                
1 30798U 07004E   24247.81959175 -.00000209  00000+0  00000+0 0  9992
2 30798   6.7975 278.0878 8353924 320.8137 299.3940  0.87833577 60180
FGRST (GLAST)           
1 33053U 08029A   24247.70120387  .00009317  00000+0  43373-3 0  9992
2 33053  25.5835  29.7862 0009432 226.9797 132.9950 15.17678211896515
TDRS 11                 
1 39070U 13004A   24247.82393576  .00000074  00000+0  00000+0 0  9998
2 39070   2.7877  14.3604 0004588  66.8170  24.4375  1.00273138 40164
TDRS 12                 
1 39504U 14004A   24247.84077037 -.00000273  00000+0  00000+0 0  9996
2 39504   3.5640   5.2536 0005469 206.1570  33.8660  1.00273257 37741
GPM-CORE                
1 39574U 14009C   24247.91892889  .00034263  00000+0  73152-3 0  9993
2 39574  64.9854 329.4448 0009029 256.8930 103.1203 15.44667056597211
MMS 1                   
1 40482U 15011A   24246.33335648 -.00002475  00000+0  00000+0 0  9996
2 40482  52.6521   6.0397 9037963 150.8738  96.8314  0.28421415  1307
MMS 2                   
1 40483U 15011B   24246.33335648 -.00002475  00000+0  00000+0 0  9997
2 40483  52.6541   6.0380 9037974 150.8754  95.8841  0.28417440 15573
MMS 3                   
1 40484U 15011C   24246.33335648 -.00002475  00000+0  00000+0 0  9998
2 40484  52.6552   6.0376 9037952 150.8753  96.0016  0.28417608  1305
MMS 4                   
1 40485U 15011D   24246.41667824 -.00002466  00000+0  00000+0 0  9992
2 40485  52.6690   6.0264 9038170 150.8843  96.4354  0.28381081  1302
TDRS 13                 
1 42915U 17047A   24247.84702285 -.00000104  00000+0  00000+0 0  9999
2 42915   3.5841 346.3140 0016010 126.8493 163.8035  1.00272647 25817
NOAA 20 (JPSS-1)        
1 43013U 17073A   24247.86132051  .00000452  00000+0  23506-3 0  9993
2 43013  98.7083 184.4711 0001753  41.1097 319.0211 14.19576556352064
